$$SOE
2460147.500000000, A.D. 2023-Jul-22 00:00:00.0000, 1.164601726552975E+08, -1.226037813561420E+08, 1.112682475711530E+07,
2460154.500000000, A.D. 2023-Jul-29 00:00:00.0000, 1.246529102858409E+08, -1.036324767057779E+08, 1.073251232881784E+07,
2460161.500000000, A.D. 2023-Aug-05 00:00:00.0000, 1.314327595993393E+08, -8.349266129912433E+07, 1.021679296727238E+07,
2460168.500000000, A.D. 2023-Aug-12 00:00:00.0000, 1.365331589135373E+08, -6.229210605950198E+07, 9.570762453797419E+06,
2460175.500000000, A.D. 2023-Aug-19 00:00:00.0000, 1.396863021192737E+08, -4.020902020835643E+07, 8.788460130138710E+06,
2460182.500000000, A.D. 2023-Aug-26 00:00:00.0000, 1.406482001668253E+08, -1.750046055349294E+07, 7.868495247693202E+06,
2460189.500000000, A.D. 2023-Sep-02 00:00:00.0000, 1.392304717632371E+08, 5.499972773947038E+06, 6.815557382428288E+06,
2460196.500000000, A.D. 2023-Sep-09 00:00:00.0000, 1.353328223766316E+08, 2.839977716720418E+07, 5.641308934787337E+06,
2460203.500000000, A.D. 2023-Sep-16 00:00:00.0000, 1.289667988627907E+08, 5.078089315317351E+07, 4.364167044773776E+06,
2460210.500000000, A.D. 2023-Sep-23 00:00:00.0000, 1.202618101946200E+08, 7.224256142050414E+07, 3.007781898195039E+06,
2460217.500000000, A.D. 2023-Sep-30 00:00:00.0000, 1.094499449051018E+08, 9.244239192218947E+07, 1.598516747498799E+06,
2460224.500000000, A.D. 2023-Oct-07 00:00:00.0000, 9.683419057050209E+07, 1.111245573125707E+08, 1.626353103403598E+05,
2460231.500000000, A.D. 2023-Oct-14 00:00:00.0000, 8.275023238452716E+07, 1.281296891024906E+08, -1.276057150493085E+06,
2460238.500000000, A.D. 2023-Oct-21 00:00:00.0000, 6.753206640257180E+07, 1.433882518553939E+08, -2.697675101448052E+06,
2460245.500000000, A.D. 2023-Oct-28 00:00:00.0000, 5.148749967595099E+07, 1.569036605188814E+08, -4.086774072143503E+06,
2460252.500000000, A.D. 2023-Nov-04 00:00:00.0000, 3.488470370446946E+07, 1.687319387621615E+08, -5.432163112573013E+06,
2460259.500000000, A.D. 2023-Nov-11 00:00:00.0000, 1.794779140044909E+07, 1.789627449298862E+08, -6.726318303243801E+06,
2460266.500000000, A.D. 2023-Nov-18 00:00:00.0000, 8.583201792627600E+05, 1.877041062354500E+08, -7.964654690630712E+06,
2460273.500000000, A.D. 2023-Nov-25 00:00:00.0000, -1.624006625155363E+07, 1.950713492616374E+08, -9.144818659835733E+06,
2460280.500000000, A.D. 2023-Dec-02 00:00:00.0000, -3.323582578337708E+07, 2.011797276929367E+08, -1.026607898731987E+07,
2460287.500000000, A.D. 2023-Dec-09 00:00:00.0000, -5.004370306248411E+07, 2.061399068275141E+08, -1.132883974810007E+07,
2460294.500000000, A.D. 2023-Dec-16 00:00:00.0000, -6.659949110300376E+07, 2.100554759311966E+08, -1.233426902595945E+07,
2460301.500000000, A.D. 2023-Dec-23 00:00:00.0000, -8.285558255438818E+07, 2.130218122308950E+08, -1.328402531680757E+07,
2460308.500000000, A.D. 2023-Dec-30 00:00:00.0000, -9.877732639445801E+07, 2.151257979936100E+08, -1.418006082933138E+07,
2460315.500000000, A.D. 2024-Jan-06 00:00:00.0000, -1.143401132743248E+08, 2.164460425371993E+08, -1.502448298579806E+07,
2460322.500000000, A.D. 2024-Jan-13 00:00:00.0000, -1.295270750866916E+08, 2.170533788462119E+08, -1.581945916702171E+07,
2460329.500000000, A.D. 2024-Jan-20 00:00:00.0000, -1.443272843542561E+08, 2.170114926495155E+08, -1.656715262631896E+07,
2460336.500000000, A.D. 2024-Jan-27 00:00:00.0000, -1.587343538731666E+08, 2.163775958001226E+08, -1.726968040282776E+07,
2460343.500000000, A.D. 2024-Feb-03 00:00:00.0000, -1.727453515346288E+08, 2.152030910784184E+08, -1.792908672703641E+07,
2460350.500000000, A.D. 2024-Feb-10 00:00:00.0000, -1.863599607128052E+08, 2.135341997389545E+08, -1.854732724969796E+07,
2460357.500000000, A.D. 2024-Feb-17 00:00:00.0000, -1.995798310731437E+08, 2.114125380505210E+08, -1.912626074129768E+07,
2460364.500000000, A.D. 2024-Feb-24 00:00:00.0000, -2.124080767002667E+08, 2.088756378914008E+08, -1.966764587747651E+07,
2460371.500000000, A.D. 2024-Mar-02 00:00:00.0000, -2.248488880765489E+08, 2.059574115057119E+08, -2.017314142958448E+07,
2460378.500000000, A.D. 2024-Mar-09 00:00:00.0000, -2.369072319350345E+08, 2.026885632731892E+08, -2.064430869275739E+07,
2460385.500000000, A.D. 2024-Mar-16 00:00:00.0000, -2.485886186788065E+08, 1.990969529688822E+08, -2.108261534362864E+07,
2460392.500000000, A.D. 2024-Mar-23 00:00:00.0000, -2.598989221371732E+08, 1.952079164215153E+08, -2.148944005412225E+07,
2460399.500000000, A.D. 2024-Mar-30 00:00:00.0000, -2.708442420900298E+08, 1.910445483781969E+08, -2.186607726581997E+07,
2460406.500000000, A.D. 2024-Apr-06 00:00:00.0000, -2.814308001906280E+08, 1.866279488108390E+08, -2.221374215881572E+07,
2460413.500000000, A.D. 2024-Apr-13 00:00:00.0000, -2.916648586791224E+08, 1.819774377248432E+08, -2.253357589371417E+07,
2460420.500000000, A.D. 2024-Apr-20 00:00:00.0000, -3.015526573788298E+08, 1.771107449394003E+08, -2.282665070502989E+07,
2460427.500000000, A.D. 2024-Apr-27 00:00:00.0000, -3.111003662606682E+08, 1.720441776517574E+08, -2.309397468371715E+07,
2460434.500000000, A.D. 2024-May-04 00:00:00.0000, -3.203140501877100E+08, 1.667927680486264E+08, -2.333649627432253E+07,
2460441.500000000, A.D. 2024-May-11 00:00:00.0000, -3.291996430230012E+08, 1.613704034483575E+08, -2.355510849630460E+07,
2460448.500000000, A.D. 2024-May-18 00:00:00.0000, -3.377629290023661E+08, 1.557899412413988E+08, -2.375065288869181E+07,
2460455.500000000, A.D. 2024-May-25 00:00:00.0000, -3.460095297672265E+08, 1.500633105689062E+08, -2.392392318378154E+07,
2460462.500000000, A.D. 2024-Jun-01 00:00:00.0000, -3.539448957561457E+08, 1.442016023672666E+08, -2.407566872889987E+07,
2460469.500000000, A.D. 2024-Jun-08 00:00:00.0000, -3.615743007314448E+08, 1.382151492129339E+08, -2.420659769313578E+07,
2460476.500000000, A.D. 2024-Jun-15 00:00:00.0000, -3.689028382706914E+08, 1.321135967725547E+08, -2.431738006558187E+07,
2460483.500000000, A.D. 2024-Jun-22 00:00:00.0000, -3.759354206205828E+08, 1.259059691228007E+08, -2.440865027235395E+07,
2460490.500000000, A.D. 2024-Jun-29 00:00:00.0000, -3.826767815574743E+08, 1.196007270628878E+08, -2.448100938287428E+07,
2460497.500000000, A.D. 2024-Jul-06 00:00:00.0000, -3.891314802320076E+08, 1.132058177695503E+08, -2.453502736594056E+07,
2460504.500000000, A.D. 2024-Jul-13 00:00:00.0000, -3.953039037448843E+08, 1.067287193298048E+08, -2.457124535783248E+07,
2460511.500000000, A.D. 2024-Jul-20 00:00:00.0000, -4.011982702003341E+08, 1.001764819151622E+08, -2.459017768026686E+07,
2460518.500000000, A.D. 2024-Jul-27 00:00:00.0000, -4.068186327075998E+08, 9.355576517535648E+07, -2.459231364027062E+07,
2460525.500000000, A.D. 2024-Aug-03 00:00:00.0000, -4.121688839085861E+08, 8.687287194701721E+07, -2.457811918003095E+07,
2460532.500000000, A.D. 2024-Aug-10 00:00:00.0000, -4.172527607459721E+08, 8.013377868153447E+07, -2.454803840318415E+07,
2460539.500000000, A.D. 2024-Aug-17 00:00:00.0000, -4.220738493311694E+08, 7.334416296885192E+07, -2.450249499036137E+07,
2460546.500000000, A.D. 2024-Aug-24 00:00:00.0000, -4.266355898146794E+08, 6.650942844557613E+07, -2.444189351850103E+07,
2460553.500000000, A.D. 2024-Aug-31 00:00:00.0000, -4.309412810922174E+08, 5.963472730042974E+07, -2.436662070945756E+07,
2460560.500000000, A.D. 2024-Sep-07 00:00:00.0000, -4.349940849427000E+08, 5.272498074725574E+07, -2.427704664026791E+07,
2460567.500000000, A.D. 2024-Sep-14 00:00:00.0000, -4.387970294825604E+08, 4.578489867742877E+07, -2.417352584957634E+07,
2460574.500000000, A.D. 2024-Sep-21 00:00:00.0000, -4.423530139417694E+08, 3.881899909438083E+07, -2.405639812755570E+07,
2460581.500000000, A.D. 2024-Sep-28 00:00:00.0000, -4.456648152330364E+08, 3.183162427058619E+07, -2.392598921500044E+07,
2460588.500000000, A.D. 2024-Oct-05 00:00:00.0000, -4.487350926325839E+08, 2.482695377889241E+07, -2.378261175379265E+07,
2460595.500000000, A.D. 2024-Oct-12 00:00:00.0000, -4.515663909221463E+08, 1.780901751087753E+07, -2.362656621681678E+07,
2460602.500000000, A.D. 2024-Oct-19 00:00:00.0000, -4.541611437367607E+08, 1.078170852736326E+07, -2.345814168343814E+07,
2460609.500000000, A.D. 2024-Oct-26 00:00:00.0000, -4.565216771497002E+08, 3.748795043711308E+06, -2.327761652770701E+07,
2460616.500000000, A.D. 2024-Nov-02 00:00:00.0000, -4.586502132380915E+08, -3.286068504067576E+06, -2.308525905917602E+07,
2460623.500000000, A.D. 2024-Nov-09 00:00:00.0000, -4.605488735340650E+08, -1.031933120673322E+07, -2.288132812711466E+07,
2460630.500000000, A.D. 2024-Nov-16 00:00:00.0000, -4.622196823378353E+08, -1.734753616628626E+07, -2.266607369373829E+07,
2460637.500000000, A.D. 2024-Nov-23 00:00:00.0000, -4.636645698490872E+08, -2.436731169873978E+07, -2.243973738783798E+07,
2460644.500000000, A.D. 2024-Nov-30 00:00:00.0000, -4.648853749124143E+08, -3.137536323571674E+07, -2.220255306415679E+07,
2460651.500000000, A.D. 2024-Dec-07 00:00:00.0000, -4.658838469617816E+08, -3.836846544784293E+07, -2.195474737510622E+07,
2460658.500000000, A.D. 2024-Dec-14 00:00:00.0000, -4.666616478571449E+08, -4.534345331483416E+07, -2.169654019390436E+07,
2460665.500000000, A.D. 2024-Dec-21 00:00:00.0000, -4.672203559372162E+08, -5.229721333696128E+07, -2.142814478008365E+07,
2460672.500000000, A.D. 2024-Dec-28 00:00:00.0000, -4.675614703230506E+08, -5.922667781262596E+07, -2.114976811296859E+07,
2460679.500000000, A.D. 2025-Jan-04 00:00:00.0000, -4.676864128813506E+08, -6.612881976522272E+07, -2.086161143886321E+07,
2460686.500000000, A.D. 2025-Jan-11 00:00:00.0000, -4.675965296725886E+08, -7.300064682231665E+07, -2.056387073055421E+07,
2460693.500000000, A.D. 2025-Jan-18 00:00:00.0000, -4.672930928054841E+08, -7.983919493293180E+07, -2.025673705155507E+07,
2460700.500000000, A.D. 2025-Jan-25 00:00:00.0000, -4.667773024606308E+08, -8.664152236667946E+07, -1.994039688777254E+07,
2460707.500000000, A.D. 2025-Feb-01 00:00:00.0000, -4.660502889002052E+08, -9.340470399519569E+07, -1.961503246784802E+07,
$$EOE